{
  "properties": {
    "path": "brands/amenity/bank",
    "exclude": {"generic": [], "named": []}
  },
  "items": [
    {
      "displayName": "Bank of Kofuku",
      "id": "bankofkofuku-b7a026",
      "locationSet": {"include": ["001"]},
      "tags": {
        "amenity": "bank",
        "brand": "Bank of Kofuku",
        "name": "Bank of Kofuku"
      }
    },
    {
      "displayName": "MollyBank",
      "id": "mollybank-b7a026",
      "locationSet": {"include": ["001"]},
      "tags": {
        "amenity": "bank",
        "brand": "MollyBank",
        "name": "MollyBank",
        "opening_hours": "10:00-22:00"
      }
    },
    {
      "displayName": "Quick Cashers",
      "id": "quickcashers-b7a026",
      "locationSet": {"include": ["001"]},
      "tags": {
        "amenity": "bank",
        "brand": "Quick Cashers",
        "name": "Quick Cashers",
        "opening_hours": "10:00-22:00"
      }
    },
    {
      "displayName": "Sneaky Bank",
      "id": "sneakybank-b7a026",
      "locationSet": {"include": ["001"]},
      "tags": {
        "amenity": "bank",
        "brand": "Sneaky Bank",
        "name": "Sneaky Bank"
      }
    },
    {
      "displayName": "山河银行",
      "id": "7c59fb-b7a026",
      "locationSet": {"include": ["001"]},
      "tags": {
        "amenity": "bank",
        "brand": "山河银行",
        "name": "山河银行"
      }
    }
  ]
}
