{
  "properties": {
    "path": "brands/amenity/bar",
    "exclude": {"generic": [], "named": []}
  },
  "items": [
    {
      "displayName": "Bar Past Twelve",
      "id": "barpasttwelve-225648",
      "locationSet": {"include": ["001"]},
      "tags": {
        "amenity": "bar",
        "brand": "Bar Past Twelve",
        "name": "Bar Past Twelve",
        "opening_hours": "22:00-04:30"
      }
    },
    {
      "displayName": "Committed Bar",
      "id": "committedbar-225648",
      "locationSet": {"include": ["001"]},
      "tags": {
        "amenity": "bar",
        "brand": "Committed Bar",
        "name": "Committed Bar",
        "takeaway": "yes"
      }
    },
    {
      "displayName": "Daily Bar",
      "id": "dailybar-225648",
      "locationSet": {"include": ["001"]},
      "tags": {
        "amenity": "bar",
        "brand": "Daily Bar",
        "name": "Daily Bar",
        "takeaway": "yes"
      }
    },
    {
      "displayName": "Days are Numbers",
      "id": "daysarenumbers-225648",
      "locationSet": {"include": ["001"]},
      "tags": {
        "amenity": "bar",
        "brand": "Days are Numbers",
        "name": "Days are Numbers",
        "opening_hours": "16:00-01:30"
      }
    },
    {
      "displayName": "Halfway Dream Bar",
      "id": "halfwaydreambar-225648",
      "locationSet": {"include": ["001"]},
      "tags": {
        "amenity": "bar",
        "brand": "Halfway Dream Bar",
        "name": "Halfway Dream Bar",
        "takeaway": "yes"
      }
    },
    {
      "displayName": "Let's Talk About Me",
      "id": "letstalkaboutme-225648",
      "locationSet": {"include": ["001"]},
      "tags": {
        "amenity": "bar",
        "brand": "Let's Talk About Me",
        "name": "Let's Talk About Me"
      }
    },
    {
      "displayName": "Lonely Nights",
      "id": "lonelynights-225648",
      "locationSet": {"include": ["001"]},
      "tags": {
        "amenity": "bar",
        "brand": "Lonely Nights",
        "name": "Lonely Nights",
        "takeaway": "yes"
      }
    },
    {
      "displayName": "Money's",
      "id": "moneys-225648",
      "locationSet": {"include": ["001"]},
      "tags": {
        "amenity": "bar",
        "brand": "Money's",
        "name": "Money's",
        "takeaway": "yes"
      }
    },
    {
      "displayName": "Subar",
      "id": "subar-225648",
      "locationSet": {"include": ["001"]},
      "tags": {
        "amenity": "bar",
        "brand": "Subar",
        "name": "Subar",
        "takeaway": "yes"
      }
    },
    {
      "displayName": "The Edge Place",
      "id": "theedgeplace-225648",
      "locationSet": {"include": ["001"]},
      "tags": {
        "amenity": "bar",
        "brand": "The Edge Place",
        "name": "The Edge Place",
        "takeaway": "yes"
      }
    },
    {
      "displayName": "The Media Bar",
      "id": "themediabar-225648",
      "locationSet": {"include": ["001"]},
      "tags": {
        "amenity": "bar",
        "brand": "The Media Bar",
        "name": "The Media Bar",
        "takeaway": "yes"
      }
    },
    {
      "displayName": "Troubadour",
      "id": "troubadour-225648",
      "locationSet": {"include": ["001"]},
      "tags": {
        "amenity": "bar",
        "brand": "Troubadour",
        "name": "Troubadour",
        "takeaway": "yes"
      }
    },
    {
      "displayName": "Vulture Culture Bar",
      "id": "vultureculturebar-225648",
      "locationSet": {"include": ["001"]},
      "tags": {
        "amenity": "bar",
        "brand": "Vulture Culture Bar",
        "name": "Vulture Culture Bar"
      }
    }
  ]
}
