{
  "properties": {
    "path": "brands/amenity/cafe",
    "exclude": {"generic": [], "named": []}
  },
  "items": [
    {
      "displayName": "Chacafé",
      "id": "chacafe-e1ef51",
      "locationSet": {"include": ["001"]},
      "tags": {
        "amenity": "cafe",
        "brand": "Chacafé",
        "cuisine": "coffee_shop",
        "name": "Chacafé",
        "takeaway": "yes"
      }
    },
    {
      "displayName": "Coffe Lake",
      "id": "coffelake-e1ef51",
      "locationSet": {"include": ["001"]},
      "tags": {
        "amenity": "cafe",
        "brand": "Universe Coffee",
        "cuisine": "coffee_shop",
        "name": "Coffe Lake",
        "opening_hours": "06:00-15:00;17:00-20:00",
        "takeaway": "yes"
      }
    },
    {
      "displayName": "Feel Good Café",
      "id": "feelgoodcafe-e1ef51",
      "locationSet": {"include": ["001"]},
      "tags": {
        "amenity": "cafe",
        "brand": "Feel Good Café",
        "cuisine": "coffee_shop",
        "name": "Feel Good Café",
        "opening_hours": "07:00-21:30",
        "takeaway": "yes"
      }
    },
    {
      "displayName": "Kasanova",
      "id": "kasanova-e1ef51",
      "locationSet": {"include": ["001"]},
      "tags": {
        "amenity": "cafe",
        "brand": "Kasanova",
        "cuisine": "coffee_shop",
        "name": "Kasanova",
        "takeaway": "yes"
      }
    },
    {
      "displayName": "Maravillas Coffee",
      "id": "maravillascoffee-e1ef51",
      "locationSet": {"include": ["001"]},
      "tags": {
        "amenity": "cafe",
        "brand": "Maravillas Ltd",
        "cuisine": "coffee_shop",
        "name": "Maravillas Coffee",
        "opening_hours": "10:00-15:00;16:00-23:30",
        "takeaway": "yes"
      }
    },
    {
      "displayName": "Seven Stars",
      "id": "sevenstars-e1ef51",
      "locationSet": {"include": ["001"]},
      "tags": {
        "amenity": "cafe",
        "brand": "Seven Stars",
        "cuisine": "coffee_shop",
        "name": "Seven Stars",
        "opening_hours": "06:00-20:00",
        "takeaway": "yes"
      }
    },
    {
      "displayName": "The Corner Coffee",
      "id": "thecornercoffee-e1ef51",
      "locationSet": {"include": ["001"]},
      "tags": {
        "amenity": "cafe",
        "brand": "The Corner Coffee",
        "cuisine": "coffee_shop",
        "name": "The Corner Coffee",
        "opening_hours": "06:00-23:00",
        "takeaway": "yes"
      }
    },
    {
      "displayName": "Universe Coffee",
      "id": "universecoffee-e1ef51",
      "locationSet": {"include": ["001"]},
      "tags": {
        "amenity": "cafe",
        "brand": "Universe Coffee",
        "cuisine": "coffee_shop",
        "name": "Universe Coffee",
        "opening_hours": "10:00-15:00;16:00-23:30",
        "takeaway": "yes"
      }
    },
    {
      "displayName": "这↑里↓奶茶",
      "id": "963d94-e1ef51",
      "locationSet": {"include": ["001"]},
      "tags": {
        "amenity": "cafe",
        "brand": "这↑里↓奶茶",
        "cuisine": "bubble_tea",
        "name": "这↑里↓奶茶",
        "takeaway": "yes"
      }
    }
  ]
}
