{
  "properties": {
    "path": "brands/amenity/fast_food",
    "exclude": {"generic": [], "named": []}
  },
  "items": [
    {
      "displayName": "Boom Boom Sandwich",
      "id": "boomboomsandwich-658eea",
      "locationSet": {"include": ["001"]},
      "tags": {
        "amenity": "fast_food",
        "brand": "Boom Boom Sandwich",
        "cuisine": "sandwich",
        "name": "Boom Boom Sandwich",
        "takeaway": "yes"
      }
    },
    {
      "displayName": "Crunchy Bite",
      "id": "crunchybite-658eea",
      "locationSet": {"include": ["001"]},
      "tags": {
        "amenity": "fast_food",
        "brand": "Crunchy Bite",
        "name": "Crunchy Bite",
        "takeaway": "yes"
      }
    },
    {
      "displayName": "The Alt Sandwich",
      "id": "thealtsandwich-658eea",
      "locationSet": {"include": ["001"]},
      "tags": {
        "amenity": "fast_food",
        "brand": "The Alt Sandwich",
        "cuisine": "sandwich",
        "name": "The Alt Sandwich",
        "takeaway": "yes"
      }
    },
    {
      "displayName": "The Delivery Pizza",
      "id": "thedeliverypizza-658eea",
      "locationSet": {"include": ["001"]},
      "tags": {
        "amenity": "fast_food",
        "brand": "The Delivery Pizza",
        "cuisine": "pizza",
        "name": "The Delivery Pizza",
        "takeaway": "yes"
      }
    },
    {
      "displayName": "Trunk Road",
      "id": "trunkroad-658eea",
      "locationSet": {"include": ["001"]},
      "tags": {
        "amenity": "fast_food",
        "brand": "Trunk Road",
        "cuisine": "sandwich",
        "name": "Trunk Road",
        "takeaway": "yes"
      }
    },
    {
      "displayName": "World Pasta",
      "id": "worldpasta-658eea",
      "locationSet": {"include": ["001"]},
      "tags": {
        "amenity": "fast_food",
        "brand": "World Pasta",
        "cuisine": "italian",
        "name": "World Pasta",
        "takeaway": "no"
      }
    }
  ]
}
