{
  "properties": {
    "path": "brands/amenity/internet_cafe",
    "exclude": {"generic": [], "named": []}
  },
  "items": [
    {
      "displayName": "Drink & Connect",
      "id": "drinkandconnect-99542b",
      "locationSet": {"include": ["001"]},
      "tags": {
        "amenity": "internet_cafe",
        "brand": "Drink & Connect",
        "name": "Drink & Connect",
        "takeaway": "yes"
      }
    },
    {
      "displayName": "LTE & A Coffee",
      "id": "lteandacoffee-99542b",
      "locationSet": {"include": ["001"]},
      "tags": {
        "amenity": "internet_cafe",
        "brand": "LTE & A Coffee",
        "name": "LTE & A Coffee",
        "opening_hours": "08:00-22:00",
        "takeaway": "yes"
      }
    },
    {
      "displayName": "MatrixTime",
      "id": "matrixtime-99542b",
      "locationSet": {"include": ["001"]},
      "tags": {
        "amenity": "internet_cafe",
        "brand": "MatrixTime",
        "name": "MatrixTime",
        "takeaway": "no"
      }
    },
    {
      "displayName": "Name a Topic",
      "id": "nameatopic-99542b",
      "locationSet": {"include": ["001"]},
      "tags": {
        "amenity": "internet_cafe",
        "brand": "Name a Topic",
        "name": "Name a Topic",
        "takeaway": "yes"
      }
    },
    {
      "displayName": "The GSM Corner",
      "id": "thegsmcorner-99542b",
      "locationSet": {"include": ["001"]},
      "tags": {
        "amenity": "internet_cafe",
        "brand": "The GSM Corner",
        "name": "The GSM Corner",
        "takeaway": "yes"
      }
    }
  ]
}
