{"_meta":{"version":"1.0.20250624","generated":"2025-06-24T12:56:01.734Z","url":"https://raw.githubusercontent.com/osmlab/name-suggestion-index/main/dist/nsi.json","hash":"7266cc263cb32a20ea8d57f16dc3ff52"},"nsi":{"brands/amenity/bank":{"properties":{"path":"brands/amenity/bank","exclude":{"generic":["^华夏银行$"],"named":[]}},"items":[{"displayName":"Bank Glory","id":"bankglory-b7a026","locationSet":{"include":["001"]},"tags":{"amenity":"bank","brand":"Bank Glory","name":"Bank Glory"}},{"displayName":"Bank of Kofuku","id":"bankofkofuku-b7a026","locationSet":{"include":["001"]},"tags":{"amenity":"bank","brand":"Bank of Kofuku","name":"Bank of Kofuku"}},{"displayName":"Charles Cash","id":"charlescash-b7a026","locationSet":{"include":["001"]},"tags":{"amenity":"bank","brand":"Charles Cash","name":"Charles Cash","opening_hours":"Mo-Sa 10:00-22:00; Su 11:00-15:00"}},{"displayName":"MollyBank","id":"mollybank-b7a026","locationSet":{"include":["001"]},"tags":{"amenity":"bank","brand":"MollyBank","name":"MollyBank","opening_hours":"10:00-22:00"}},{"displayName":"Quick Cashers","id":"quickcashers-b7a026","locationSet":{"include":["001"]},"tags":{"amenity":"bank","brand":"Quick Cashers","name":"Quick Cashers","opening_hours":"10:00-22:00"}},{"displayName":"Sneaky Bank","id":"sneakybank-b7a026","locationSet":{"include":["001"]},"tags":{"amenity":"bank","brand":"Sneaky Bank","name":"Sneaky Bank"}},{"displayName":"山河银行","id":"7c59fb-b7a026","locationSet":{"include":["001"]},"tags":{"amenity":"bank","brand":"山河银行","name":"山河银行"}}],"templates":[]},"brands/amenity/bar":{"properties":{"path":"brands/amenity/bar","exclude":{"generic":[],"named":[]}},"items":[{"displayName":"Bar Past Twelve","id":"barpasttwelve-225648","locationSet":{"include":["001"]},"tags":{"amenity":"bar","brand":"Bar Past Twelve","name":"Bar Past Twelve","opening_hours":"22:00-04:30"}},{"displayName":"Days are Numbers","id":"daysarenumbers-225648","locationSet":{"include":["001"]},"tags":{"amenity":"bar","brand":"Days are Numbers","name":"Days are Numbers","opening_hours":"16:00-01:30"}},{"displayName":"Let's Talk About Me","id":"letstalkaboutme-225648","locationSet":{"include":["001"]},"tags":{"amenity":"bar","brand":"Let's Talk About Me","name":"Let's Talk About Me"}},{"displayName":"Lonely Nights","id":"lonelynights-225648","locationSet":{"include":["001"]},"tags":{"amenity":"bar","brand":"Lonely Nights","name":"Lonely Nights","takeaway":"yes"}},{"displayName":"Money's","id":"moneys-225648","locationSet":{"include":["001"]},"tags":{"amenity":"bar","brand":"Money's","name":"Money's","takeaway":"yes"}},{"displayName":"Troubadour","id":"troubadour-225648","locationSet":{"include":["001"]},"tags":{"amenity":"bar","brand":"Troubadour","name":"Troubadour","takeaway":"yes"}},{"displayName":"Vulture Culture Bar","id":"vultureculturebar-225648","locationSet":{"include":["001"]},"tags":{"amenity":"bar","brand":"Vulture Culture Bar","name":"Vulture Culture Bar"}}],"templates":[]},"brands/amenity/cafe":{"properties":{"path":"brands/amenity/cafe","exclude":{"generic":[],"named":[]}},"items":[{"displayName":"Chacafé","id":"chacafe-e1ef51","locationSet":{"include":["001"]},"tags":{"amenity":"cafe","brand":"Chacafé","cuisine":"coffee_shop","name":"Chacafé","takeaway":"yes"}},{"displayName":"Coffe Lake","id":"coffelake-e1ef51","locationSet":{"include":["001"]},"tags":{"amenity":"cafe","brand":"Universe Coffee","cuisine":"coffee_shop","name":"Coffe Lake","opening_hours":"06:00-15:00;17:00-20:00","takeaway":"yes"}},{"displayName":"Feel Good Café","id":"feelgoodcafe-e1ef51","locationSet":{"include":["001"]},"tags":{"amenity":"cafe","brand":"Feel Good Café","cuisine":"coffee_shop","name":"Feel Good Café","opening_hours":"07:00-21:30","takeaway":"yes"}},{"displayName":"Kasanova","id":"kasanova-e1ef51","locationSet":{"include":["001"]},"tags":{"amenity":"cafe","brand":"Kasanova","cuisine":"coffee_shop","name":"Kasanova","takeaway":"yes"}},{"displayName":"Maravillas Coffee","id":"maravillascoffee-e1ef51","locationSet":{"include":["001"]},"tags":{"amenity":"cafe","brand":"Maravillas Ltd","cuisine":"coffee_shop","name":"Maravillas Coffee","opening_hours":"10:00-15:00;16:00-23:30","takeaway":"yes"}},{"displayName":"Miss Caffeina","id":"misscaffeina-e1ef51","locationSet":{"include":["001"]},"tags":{"amenity":"cafe","brand":"Miss Caffeina","cuisine":"coffee_shop","name":"Miss Caffeina","opening_hours":"06:00-15:00;16:00-18:00","takeaway":"yes"}},{"displayName":"Seven Stars","id":"sevenstars-e1ef51","locationSet":{"include":["001"]},"tags":{"amenity":"cafe","brand":"Seven Stars","cuisine":"coffee_shop","name":"Seven Stars","opening_hours":"06:00-20:00","takeaway":"yes"}},{"displayName":"The Corner Coffee","id":"thecornercoffee-e1ef51","locationSet":{"include":["001"]},"tags":{"amenity":"cafe","brand":"The Corner Coffee","cuisine":"coffee_shop","name":"The Corner Coffee","opening_hours":"06:00-23:00","takeaway":"yes"}},{"displayName":"Universe Coffee","id":"universecoffee-e1ef51","locationSet":{"include":["001"]},"tags":{"amenity":"cafe","brand":"Universe Coffee","cuisine":"coffee_shop","name":"Universe Coffee","opening_hours":"10:00-15:00;16:00-23:30","takeaway":"yes"}},{"displayName":"这↑里↓奶茶","id":"963d94-e1ef51","locationSet":{"include":["001"]},"tags":{"amenity":"cafe","brand":"这↑里↓奶茶","cuisine":"bubble_tea","name":"这↑里↓奶茶","takeaway":"yes"}}],"templates":[]},"brands/amenity/cinema":{"properties":{"path":"brands/amenity/cinema","exclude":{"generic":[],"named":[]}},"items":[{"countryRestrictions":{"allowed":["FSA"],"ask":[],"no":["*"]},"displayName":"Archantan Film Company","id":"archantanfilmcompany-f33303","locationSet":{"include":["001"]},"tags":{"amenity":"cinema","brand":"Archantan Film Company","name":"Archantan Film Company"}},{"countryRestrictions":{"allowed":["FSA:NW","FSA:HL","FSA:WL"],"ask":["FSA:SE"],"no":["FSA:AL","FSA:MD","FSA:CT","FSA:NE","FSA:MA"]},"displayName":"Blue Sparrow Cinema","id":"bluesparrowcinema-f33303","locationSet":{"include":["001"]},"originCountry":"FSA","tags":{"amenity":"cinema","brand":"Blue Sparrow Cinema","name":"Blue Sparrow Cinema"}},{"displayName":"Helmet Cinemas","id":"helmetcinemas-f33303","locationSet":{"include":["001"]},"tags":{"amenity":"cinema","brand":"Helmet Cinemas","name":"Helmet Cinemas"}},{"countryRestrictions":{"allowed":["Lutang"],"ask":[],"no":["*"]},"displayName":"MoviePlanet","id":"movieplanet-f33303","locationSet":{"include":["001"]},"tags":{"amenity":"cinema","brand":"MoviePlanet","name":"MoviePlanet"}},{"countryRestrictions":{"allowed":["FSA"],"ask":[],"no":["*"]},"displayName":"Screeners","id":"screeners-f33303","locationSet":{"include":["001"]},"tags":{"amenity":"cinema","brand":"Screeners","name":"Screeners"}}],"templates":[]},"brands/amenity/fast_food":{"properties":{"path":"brands/amenity/fast_food","exclude":{"generic":[],"named":[]}},"items":[{"displayName":"BBJ Burguer","id":"bbjburguer-658eea","locationSet":{"include":["001"]},"tags":{"amenity":"fast_food","brand":"BBJ Burguer","cuisine":"burguer","name":"BBJ Burguer","takeaway":"no"}},{"displayName":"Boom Boom Sandwich","id":"boomboomsandwich-658eea","locationSet":{"include":["001"]},"tags":{"amenity":"fast_food","brand":"Boom Boom Sandwich","cuisine":"sandwich","name":"Boom Boom Sandwich","takeaway":"yes"}},{"displayName":"Crunchy Bite","id":"crunchybite-658eea","locationSet":{"include":["001"]},"tags":{"amenity":"fast_food","brand":"Crunchy Bite","name":"Crunchy Bite","takeaway":"yes"}},{"displayName":"Five Ladies","id":"fiveladies-658eea","locationSet":{"include":["001"]},"tags":{"amenity":"fast_food","brand":"Five Ladies","cuisine":"american","name":"Five Ladies","takeaway":"yes"}},{"displayName":"Food Problems","id":"foodproblems-658eea","locationSet":{"include":["001"]},"tags":{"amenity":"fast_food","brand":"Food Problems","cuisine":"italian","name":"Food Problems","takeaway":"yes"}},{"displayName":"Miss Food","id":"missfood-658eea","locationSet":{"include":["001"]},"tags":{"amenity":"fast_food","brand":"Miss Food","cuisine":"italian","name":"Miss Food","takeaway":"yes"}},{"displayName":"The Alt Sandwich","id":"thealtsandwich-658eea","locationSet":{"include":["001"]},"tags":{"amenity":"fast_food","brand":"The Alt Sandwich","cuisine":"sandwich","name":"The Alt Sandwich","takeaway":"yes"}},{"displayName":"The Delivery Pizza","id":"thedeliverypizza-658eea","locationSet":{"include":["001"]},"tags":{"amenity":"fast_food","brand":"The Delivery Pizza","cuisine":"pizza","name":"The Delivery Pizza","takeaway":"yes"}},{"displayName":"Trunk Road","id":"trunkroad-658eea","locationSet":{"include":["001"]},"tags":{"amenity":"fast_food","brand":"Trunk Road","cuisine":"sandwich","name":"Trunk Road","takeaway":"yes"}},{"displayName":"World Pasta","id":"worldpasta-658eea","locationSet":{"include":["001"]},"tags":{"amenity":"fast_food","brand":"World Pasta","cuisine":"italian","name":"World Pasta","takeaway":"no"}}],"templates":[]},"brands/amenity/fuel":{"properties":{"path":"brands/amenity/fuel","exclude":{"generic":[],"named":[]}},"items":[{"displayName":"Armour","id":"armour-b3d110","locationSet":{"include":["001"]},"tags":{"amenity":"fuel","brand":"Armour","fuel:diesel":"yes","fuel:e10":"yes","fuel:lpg":"yes","fuel:octane_95":"yes","fuel:octane_98":"yes","name":"Armour","opening_hours":"24/7"}},{"displayName":"E5 B7 Mates","id":"e5b7mates-b3d110","locationSet":{"include":["001"]},"tags":{"amenity":"fuel","brand":"E5 B7 Mates","fuel:diesel":"yes","fuel:e10":"yes","fuel:lpg":"yes","fuel:octane_95":"yes","fuel:octane_98":"yes","name":"E5 B7 Mates","opening_hours":"24/7"}},{"displayName":"Ocean Fuel","id":"oceanfuel-b3d110","locationSet":{"include":["001"]},"tags":{"amenity":"fuel","brand":"Ocean Fuel","fuel:diesel":"yes","fuel:e10":"yes","fuel:lpg":"yes","fuel:octane_95":"yes","fuel:octane_98":"yes","name":"Ocean Fuel","opening_hours":"06:00-00:00"}},{"displayName":"Vegetable Gasoline","id":"vegetablegasoline-b3d110","locationSet":{"include":["001"]},"tags":{"amenity":"fuel","brand":"Vegetable Gasoline","fuel:diesel":"yes","fuel:e10":"yes","fuel:lpg":"yes","fuel:octane_95":"yes","fuel:octane_98":"yes","name":"Vegetable Gasoline","opening_hours":"24/7","service_times":"07:00-14:00,16:00-22:00"}}],"templates":[]},"brands/amenity/internet_cafe":{"properties":{"path":"brands/amenity/internet_cafe","exclude":{"generic":[],"named":[]}},"items":[{"displayName":"Drink & Connect","id":"drinkandconnect-99542b","locationSet":{"include":["001"]},"tags":{"amenity":"internet_cafe","brand":"Drink & Connect","name":"Drink & Connect","takeaway":"yes"}},{"displayName":"LTE & A Coffee","id":"lteandacoffee-99542b","locationSet":{"include":["001"]},"tags":{"amenity":"internet_cafe","brand":"LTE & A Coffee","name":"LTE & A Coffee","opening_hours":"08:00-22:00","takeaway":"yes"}},{"displayName":"MatrixTime","id":"matrixtime-99542b","locationSet":{"include":["001"]},"tags":{"amenity":"internet_cafe","brand":"MatrixTime","name":"MatrixTime","takeaway":"no"}},{"displayName":"Name a Topic","id":"nameatopic-99542b","locationSet":{"include":["001"]},"tags":{"amenity":"internet_cafe","brand":"Name a Topic","name":"Name a Topic","takeaway":"yes"}},{"displayName":"The GSM Corner","id":"thegsmcorner-99542b","locationSet":{"include":["001"]},"tags":{"amenity":"internet_cafe","brand":"The GSM Corner","name":"The GSM Corner","takeaway":"yes"}},{"displayName":"UMTS Decaf","id":"umtsdecaf-99542b","locationSet":{"include":["001"]},"tags":{"amenity":"internet_cafe","brand":"UMTS Decaf","name":"UMTS Decaf","takeaway":"yes"}}],"templates":[]},"brands/amenity/parcel_locker":{"properties":{"path":"brands/amenity/parcel_locker","exclude":{"generic":[],"named":[]}},"items":[{"displayName":"Crackzon Locker","id":"crackzonlocker-6a219a","locationSet":{"include":["001"]},"tags":{"amenity":"parcel_locker","brand":"Crackzon Locker","name":"Crackzon Locker"}},{"displayName":"Leave it! RaBBAu","id":"leaveitrabbau-6a219a","locationSet":{"include":["001"]},"tags":{"amenity":"parcel_locker","brand":"Leave it! RaBBAu","name":"Leave it! RaBBAu"}}],"templates":[]},"brands/amenity/pharmacy":{"properties":{"path":"brands/amenity/pharmacy","exclude":{"generic":[],"named":[]}},"items":[{"countryRestrictions":{"no":[],"ask":[],"allowed":["*"]},"displayName":"Ōdasamo Takeri 大山清","id":"odasamotakeri-f5140f","locationSet":{"include":["001"]},"tags":{"amenity":"pharmacy","brand":"Ōdasamo Takeri","healthcare":"pharmacy","name":"Ōdasamo Takeri","name:en":"Ōdasamo Takeri","name:izaki":"大山清"}},{"displayName":"Pills & Syrups","id":"pillsandsyrups-f5140f","locationSet":{"include":["001"]},"tags":{"amenity":"pharmacy","brand":"Pills & Syrups","healthcare":"pharmacy","name":"Pills & Syrups","name:en":"Pills & Syrups"}},{"displayName":"Ross Medicines","id":"rossmedicines-f5140f","locationSet":{"include":["001"]},"tags":{"amenity":"pharmacy","brand":"Ross Medicines","healthcare":"pharmacy","name":"Ross Medicines","name:en":"Ross Medicines"}},{"displayName":"SecondRepublic Pharmacy","id":"secondrepublicpharmacy-f5140f","locationSet":{"include":["001"]},"tags":{"amenity":"pharmacy","brand":"SecondRepublic Pharmacy","healthcare":"pharmacy","name":"SecondRepublic Pharmacy"}},{"displayName":"Sensatez Pills","id":"sensatezpills-f5140f","locationSet":{"include":["001"]},"tags":{"amenity":"pharmacy","brand":"Sensatez Pills","healthcare":"pharmacy","name":"Sensatez Pills"}},{"displayName":"ThirdRepublic Pharmacy","id":"thirdrepublicpharmacy-f5140f","locationSet":{"include":["001"]},"tags":{"amenity":"pharmacy","brand":"ThirdRepublic Pharmacy","healthcare":"pharmacy","name":"ThirdRepublic Pharmacy"}}],"templates":[]},"brands/amenity/post_office":{"properties":{"path":"brands/amenity/post_office","exclude":{"generic":[],"named":[]}},"items":[{"displayName":"华夏邮政","id":"33743b-27cb18","locationSet":{"include":["001"]},"tags":{"amenity":"post_office","brand":"华夏邮政","name":"华夏邮政","operator":"华夏共和国邮政部"}},{"displayName":"速达邮","id":"40246e-27cb18","locationSet":{"include":["001"]},"tags":{"amenity":"post_office","brand":"速达邮","name":"速达邮","operator":"上京速达邮物流管理有限公司"}}],"templates":[]},"brands/amenity/pub":{"properties":{"path":"brands/amenity/pub","exclude":{"generic":[],"named":[]}},"items":[{"displayName":"Football & Drinks","id":"footballanddrinks-296a9c","locationSet":{"include":["001"]},"tags":{"amenity":"pub","brand":"Football & Drinks","name":"Football & Drinks","opening_hours":"Tu-Th 16:00-22:00; Fr-Sa 16:00-02:00; Su 18:00-00:00"}},{"displayName":"Late Sat Pub","id":"latesatpub-296a9c","locationSet":{"include":["001"]},"tags":{"amenity":"pub","brand":"Late Sat Pub","name":"Late Sat Pub","opening_hours":"We-Mo 12:00-23:00"}}],"templates":[]},"brands/amenity/restaurant":{"properties":{"path":"brands/amenity/restaurant","exclude":{"generic":[],"named":[]}},"items":[{"displayName":"32 Meals","id":"32meals-2fabb0","locationSet":{"include":["001"]},"tags":{"amenity":"restaurant","brand":"32 Meals","name":"32 Meals"}},{"displayName":"American Truths","id":"americantruths-2fabb0","locationSet":{"include":["001"]},"tags":{"amenity":"restaurant","brand":"American Truths","cuisine":"american","name":"American Truths"}},{"countryRestrictions":{"allowed":["Lutang"],"ask":[],"no":[]},"creator":"Lemuria","displayName":"Ang Igado ni Maria","id":"angigadonimaria-2fabb0","locationSet":{"include":["001"]},"originCountry":"Lutang","tags":{"alt_name:en":"Maria's Igado","amenity":"restaurant","brand":"Ang Igado ni Maria","cuisine":"filipino","name":"Ang Igado ni Maria"}},{"countryRestrictions":{"allowed":["Lutang"],"ask":[],"no":[]},"creator":"Lemuria","displayName":"Cheat Day Meals","id":"cheatdaymeals-2fabb0","locationSet":{"include":["001"]},"originCountry":"Lutang","tags":{"amenity":"restaurant","brand":"Cheat Day Meals","name":"Cheat Day Meals"}},{"displayName":"Chess' Pizza","id":"chesspizza-2fabb0","locationSet":{"include":["001"]},"tags":{"amenity":"restaurant","brand":"Chess' Pizza","cuisine":"pizza","name":"Chess' Pizza"}},{"countryRestrictions":{"allowed":["FSA"],"ask":[],"no":["*"]},"displayName":"Cookin' Pizza","id":"cookinpizza-2fabb0","locationSet":{"include":["001"]},"tags":{"amenity":"restaurant","brand":"Cookin' Pizza","cuisine":"pizza","name":"Cookin' Pizza"}},{"countryRestrictions":{"allowed":["Lutang"],"ask":[],"no":[]},"creator":"Lemuria","displayName":"Cowboy FSA-Style Grill","id":"cowboyfsastylegrill-2fabb0","locationSet":{"include":["001"]},"originCountry":"Lutang","tags":{"amenity":"restaurant","brand":"Cowboy FSA-Style Grill","cuisine":"american;steak_house;archantan","name":"Cowboy FSA-Style Grill"}},{"displayName":"La Bella Pasta","id":"labellapasta-2fabb0","locationSet":{"include":["001"]},"tags":{"amenity":"restaurant","brand":"La Bella Pastaa","name":"La Bella Pasta"}},{"countryRestrictions":{"allowed":["Lutang"],"ask":[],"no":[]},"creator":"Lemuria","displayName":"Lechon ni Lina","id":"lechonnilina-2fabb0","locationSet":{"include":["001"]},"originCountry":"Lutang","tags":{"amenity":"restaurant","brand":"Lechon ni Lina","cuisine":"filipino","name":"Lechon ni Lina"}},{"countryRestrictions":{"allowed":["Lutang"],"ask":[],"no":[]},"creator":"Lemuria","displayName":"Lovely Litson","id":"lovelylitson-2fabb0","locationSet":{"include":["001"]},"originCountry":"Lutang","tags":{"amenity":"restaurant","brand":"Lovely Litson","cuisine":"filipino","name":"Lovely Litson"}},{"countryRestrictions":{"allowed":["Lutang"],"ask":[],"no":[]},"creator":"Lemuria","displayName":"Milkfish Expert","id":"milkfishexpert-2fabb0","locationSet":{"include":["001"]},"originCountry":"Lutang","tags":{"amenity":"restaurant","brand":"Milkfish Expert","cuisine":"fish","name":"Milkfish Expert"}},{"displayName":"Minos","id":"minos-2fabb0","locationSet":{"include":["001"]},"tags":{"amenity":"restaurant","brand":"Minos","name":"Minos","takeaway":"yes"}},{"countryRestrictions":{"allowed":["*"],"ask":[],"no":[]},"creator":"Lemuria","displayName":"Nalani's","id":"nalanis-2fabb0","locationSet":{"include":["001"]},"originCountry":"Lutang","tags":{"amenity":"restaurant","brand":"Nalani's","cuisine":"asian","name":"Nalani's"}},{"countryRestrictions":{"allowed":["Lutang"],"ask":[],"no":[]},"creator":"Lemuria","displayName":"Original Lutang Meals","id":"originallutangmeals-2fabb0","locationSet":{"include":["001"]},"originCountry":"Lutang","tags":{"amenity":"restaurant","brand":"Original Lutang Meals","cuisine":"filipino","name":"Original Lutang Meals"}},{"countryRestrictions":{"allowed":["Lutang"],"ask":[],"no":[]},"creator":"Lemuria","displayName":"P.C.N. Chicken","id":"pcnchicken-2fabb0","locationSet":{"include":["001"]},"originCountry":"Lutang","tags":{"amenity":"restaurant","brand":"P.C.N. Chicken","cuisine":"chicken","name":"P.C.N. Chicken"}},{"displayName":"Pure Meat","id":"puremeat-2fabb0","locationSet":{"include":["001"]},"tags":{"amenity":"restaurant","brand":"Pure Meat","name":"Pure Meat"}},{"displayName":"Reech Food","id":"reechfood-2fabb0","locationSet":{"include":["001"]},"tags":{"amenity":"restaurant","brand":"Reech Food","name":"Reech Food"}},{"displayName":"Tonight's The Night","id":"tonightsthenight-2fabb0","locationSet":{"include":["001"]},"tags":{"amenity":"restaurant","brand":"Tonight's The Night","name":"Tonight's The Night"}},{"displayName":"Vegan Queen","id":"veganqueen-2fabb0","locationSet":{"include":["001"]},"tags":{"amenity":"restaurant","brand":"Vegan Queen","name":"Vegan Queen","opening_hours":"Mo-Fr 13:30-23:30"}},{"countryRestrictions":{"allowed":["Lutang"],"ask":[],"no":[]},"creator":"Lemuria","displayName":"Your Mom's Igado","id":"yourmomsigado-2fabb0","locationSet":{"include":["001"]},"originCountry":"Lutang","tags":{"amenity":"restaurant","brand":"Your Mom's Igado","cuisine":"filipino","name":"Your Mom's Igado"}},{"countryRestrictions":{"allowed":["Huaxia"],"ask":[],"no":[]},"creator":"NM$l","displayName":"诶！珍地道老铜锅","id":"ed854c-2fabb0","locationSet":{"include":["001"]},"originCountry":"Huaxia","tags":{"amenity":"restaurant","brand":"诶！珍地道老铜锅","cuisine":"Chinese","cuisine_hx":"Huoguo (Shangjing)","name":"诶！珍地道"}},{"countryRestrictions":{"allowed":["Huaxia"],"ask":[],"no":[]},"creator":"NM$l","displayName":"陈白麻辣烫","id":"ac6813-2fabb0","locationSet":{"include":["001"]},"originCountry":"Huaxia","tags":{"amenity":"restaurant","brand":"陈白麻辣烫","cuisine":"Chinese","cuisine_hx":"Malatang","name":"陈白麻辣烫"}}],"templates":[]},"brands/amenity/vehicle_inspection":{"properties":{"path":"brands/amenity/vehicle_inspection","exclude":{"generic":[],"named":[]}},"items":[{"displayName":"MOT Cheap Car","id":"motcheapcar-96b894","locationSet":{"include":["001"]},"tags":{"amenity":"vehicle_inspection","brand":"MOT Cheap Car","name":"MOT Cheap Car","opening_hours":"Mo-Fr 07:00-22:00"}},{"displayName":"MOT RaBBAu","id":"motrabbau-96b894","locationSet":{"include":["001"]},"tags":{"amenity":"vehicle_inspection","brand":"MOT RaBBAu","name":"MOT RaBBAu","opening_hours":"Mo-Fr 06:30-20:30"}}],"templates":[]},"brands/leisure/amusement_arcade":{"properties":{"path":"brands/leisure/amusement_arcade","exclude":{"generic":[],"named":[]}},"items":[{"displayName":"GO! Arcade","id":"goarcade-dd2442","locationSet":{"include":["001"]},"tags":{"brand":"GO! Arcade","leisure":"amusement_arcade","name":"GO! Arcade","opening_hours":"Tu-Su 10:00-00:00"}},{"displayName":"Town Land Arcade","id":"townlandarcade-dd2442","locationSet":{"include":["001"]},"tags":{"brand":"Town Land Arcade","leisure":"amusement_arcade","name":"Town Land Arcade","opening_hours":"17:00-02:00"}}],"templates":[]},"brands/leisure/fitness_centre":{"properties":{"path":"brands/leisure/fitness_centre","exclude":{"generic":[],"named":[]}},"items":[{"displayName":"Heavy Stuff","id":"heavystuff-c8777b","locationSet":{"include":["001"]},"tags":{"brand":"Heavy Stuff","leisure":"fitness_centre","name":"Heavy Stuff","opening_hours":"06:00-22:00"}},{"displayName":"The Gym Ways","id":"thegymways-c8777b","locationSet":{"include":["001"]},"tags":{"brand":"The Gym Ways","leisure":"fitness_centre","name":"The Gym Ways","opening_hours":"06:00-22:00"}},{"displayName":"ThickGym","id":"thickgym-c8777b","locationSet":{"include":["001"]},"tags":{"brand":"ThickGym","leisure":"fitness_centre","name":"ThickGym","opening_hours":"06:00-23:00"}},{"displayName":"Wellbeing Gym","id":"wellbeinggym-c8777b","locationSet":{"include":["001"]},"tags":{"brand":"Wellbeing Gym","leisure":"fitness_centre","name":"Wellbeing Gym","opening_hours":"07:00-00:00"}}],"templates":[]},"brands/leisure/sauna":{"properties":{"path":"brands/leisure/sauna","exclude":{"generic":[],"named":[]}},"items":[{"displayName":"Fomocos Sauna","id":"fomocossauna-7a820d","locationSet":{"include":["001"]},"tags":{"brand":"Fomocos Sauna","leisure":"sauna","name":"Fomocos Sauna","opening_hours":"Tu-Su 10:00-00:00"}},{"displayName":"Hot Surfaces","id":"hotsurfaces-7a820d","locationSet":{"include":["001"]},"tags":{"brand":"Hot Surfaces","leisure":"sauna","name":"Hot Surfaces","opening_hours":"10:00-22:00"}}],"templates":[]},"brands/office/insurance":{"properties":{"path":"brands/office/insurance","exclude":{"generic":[],"named":[]}},"items":[{"displayName":"冚家人寿","id":"b9a9a5-b9b33f","locationSet":{"include":["001"]},"tags":{"brand":"冚家人寿","name":"冚家人寿","office":"insurance"}}],"templates":[]},"brands/shop/bag":{"properties":{"path":"brands/shop/bag","exclude":{"generic":[],"named":[]}},"items":[{"displayName":"Carry It Bags","id":"carryitbags-4123fd","locationSet":{"include":["001"]},"tags":{"brand":"Carry It Bags","name":"Carry It Bags","shop":"bag"}},{"displayName":"Tote Things","id":"totethings-4123fd","locationSet":{"include":["001"]},"tags":{"brand":"Tote Things","name":"Tote Things","shop":"bag"}}],"templates":[]},"brands/shop/bakery":{"properties":{"path":"brands/shop/bakery","exclude":{"generic":[],"named":[]}},"items":[{"displayName":"Dolce Bakes","id":"dolcebakes-4f9c7f","locationSet":{"include":["001"]},"tags":{"brand":"Dolce Bakes","name":"Dolce Bakes","shop":"bakery"}},{"displayName":"Trenial Bakes","id":"trenialbakes-4f9c7f","locationSet":{"include":["001"]},"tags":{"brand":"Trenial Bakes","name":"Trenial Bakes","opening_hours":"06:30-13:00,16:00-19:00","shop":"bakery"}}],"templates":[]},"brands/shop/books":{"properties":{"path":"brands/shop/books","exclude":{"generic":[],"named":[]}},"items":[{"displayName":"Outstanding Sheets","id":"outstandingsheets-ef41f6","locationSet":{"include":["001"]},"tags":{"brand":"Outstanding Sheets","name":"Outstanding Sheets","opening_hours":"07:00-18:00","shop":"books"}},{"displayName":"Salvadores Lectores","id":"salvadoreslectores-ef41f6","locationSet":{"include":["001"]},"tags":{"brand":"Salvadores Lectores","name":"Salvadores Lectores","opening_hours":"08:00-20:00","shop":"books"}},{"displayName":"The Book's Home","id":"thebookshome-ef41f6","locationSet":{"include":["001"]},"tags":{"brand":"The Book's Home","name":"The Book's Home","opening_hours":"10:00-21:00","shop":"books"}}],"templates":[]},"brands/shop/clothes":{"properties":{"path":"brands/shop/clothes","exclude":{"generic":[],"named":[]}},"items":[{"displayName":"Autummfield","id":"autummfield-3937bd","locationSet":{"include":["001"]},"tags":{"brand":"Autummfield","name":"Autummfield","shop":"clothes"}},{"displayName":"Citiess","id":"citiess-3937bd","locationSet":{"include":["001"]},"tags":{"brand":"Citiess","name":"Citiess","shop":"clothes"}},{"displayName":"Fashion Next Century","id":"fashionnextcentury-3937bd","locationSet":{"include":["001"]},"tags":{"brand":"Fashion Next Century","name":"Fashion Next Century","shop":"clothes"}},{"displayName":"La Moda PLOA","id":"lamodaploa-3937bd","locationSet":{"include":["001"]},"tags":{"brand":"La Moda PLOA","name":"La Moda PLOA","shop":"clothes"}},{"displayName":"Massimo Driver","id":"massimodriver-3937bd","locationSet":{"include":["001"]},"tags":{"brand":"Massimo Driver","name":"Massimo Driver","shop":"clothes"}},{"displayName":"Orange Wear","id":"orangewear-3937bd","locationSet":{"include":["001"]},"tags":{"brand":"Orange Wear","name":"Orange Wear","shop":"clothes"}},{"displayName":"Suit Yourself","id":"suityourself-3937bd","locationSet":{"include":["001"]},"tags":{"brand":"Suit Yourself","name":"Suit Yourself","shop":"clothes"}}],"templates":[]},"brands/shop/convenience":{"properties":{"path":"brands/shop/convenience","exclude":{"generic":[],"named":[]}},"items":[{"displayName":"24 Mart","id":"24mart-4d6b4b","locationSet":{"include":["001"]},"tags":{"brand":"24 Mart","name":"24 Mart","shop":"convenience"}},{"displayName":"9-Eleven","id":"9eleven-4d6b4b","locationSet":{"include":["001"]},"matchNames":["911","九·一一","九◼一"],"tags":{"brand":"9-Eleven","name":"9-Eleven","shop":"convenience"}},{"displayName":"AS News","id":"asnews-4d6b4b","locationSet":{"include":["001"]},"tags":{"brand":"AS News","name":"AS News","shop":"convenience"}},{"displayName":"Co-op Locul","id":"cooplocul-4d6b4b","locationSet":{"include":["001"]},"tags":{"brand":"Co-op Locul","name":"Co-op Locul","shop":"convenience"}},{"displayName":"Essential Shopping","id":"essentialshopping-4d6b4b","locationSet":{"include":["001"]},"tags":{"brand":"Essential Shopping","name":"Essential Shopping","shop":"convenience"}},{"displayName":"F-stór","id":"fstor-4d6b4b","locationSet":{"include":["001"]},"tags":{"brand":"F-stór","name":"F-stór","shop":"convenience"}},{"displayName":"Fresh Drinks","id":"freshdrinks-4d6b4b","locationSet":{"include":["001"]},"tags":{"brand":"Fresh Drinks","name":"Fresh Drinks","shop":"convenience"}},{"displayName":"Friendly Mart","id":"friendlymart-4d6b4b","locationSet":{"include":["001"]},"tags":{"brand":"Friendly Mart","name":"Friendly Mart","shop":"convenience"}},{"displayName":"Kioski","id":"kioski-4d6b4b","locationSet":{"include":["001"]},"tags":{"brand":"Kioski","name":"Kioski","shop":"convenience"}},{"displayName":"LeDéPa","id":"ledepa-4d6b4b","locationSet":{"include":["001"]},"tags":{"brand":"LeDéPa","name":"LeDéPa","shop":"convenience"}},{"displayName":"Madrazo Express","id":"madrazoexpress-4d6b4b","locationSet":{"include":["001"]},"tags":{"brand":"Madrazo Express","name":"Madrazo Express","shop":"convenience"}},{"displayName":"Mi Bodeguita","id":"mibodeguita-4d6b4b","locationSet":{"include":["001"]},"tags":{"brand":"Mi Bodeguita","name":"Mi Bodeguita","shop":"convenience"}},{"displayName":"Mineral Drinks","id":"mineraldrinks-4d6b4b","locationSet":{"include":["001"]},"tags":{"brand":"Mineral Drinks","name":"Mineral Drinks","shop":"convenience"}},{"displayName":"Minimarket","id":"minimarket-4d6b4b","locationSet":{"include":["001"]},"tags":{"brand":"Minimarket","name":"Minimarket","shop":"convenience"}},{"displayName":"PickIt!","id":"pickit-4d6b4b","locationSet":{"include":["001"]},"tags":{"brand":"PickIt!","name":"PickIt!","shop":"convenience"}},{"displayName":"Saturno","id":"saturno-4d6b4b","locationSet":{"include":["001"]},"tags":{"brand":"Saturno","name":"Saturno","shop":"convenience"}},{"displayName":"Six Twelve","id":"sixtwelve-4d6b4b","locationSet":{"include":["001"]},"tags":{"brand":"Six Twelve","name":"Six Twelve","shop":"convenience"}},{"displayName":"WicMart","id":"wicmart-4d6b4b","locationSet":{"include":["001"]},"tags":{"brand":"WicMart","name":"WicMart","shop":"convenience"}},{"displayName":"Zippy Mart","id":"zippymart-4d6b4b","locationSet":{"include":["001"]},"tags":{"brand":"Zippy Mart","name":"Zippy Mart","shop":"convenience"}}],"templates":[]},"brands/shop/copyshop":{"properties":{"path":"brands/shop/copyshop","exclude":{"generic":[],"named":[]}},"items":[{"displayName":"Central Copy","id":"centralcopy-f71638","locationSet":{"include":["001"]},"tags":{"brand":"Central Copy","name":"Central Copy","shop":"copyshop"}},{"displayName":"CopyTime","id":"copytime-f71638","locationSet":{"include":["001"]},"tags":{"brand":"CopyTime","name":"CopyTime","shop":"copyshop"}},{"displayName":"Ctrl + V","id":"ctrlv-f71638","locationSet":{"include":["001"]},"tags":{"brand":"Ctrl + V","name":"Ctrl + V","shop":"copyshop"}},{"displayName":"Dot Print","id":"dotprint-f71638","locationSet":{"include":["001"]},"tags":{"brand":"Dot Print","name":"Dot Print","shop":"copyshop"}}],"templates":[]},"brands/shop/department_store":{"properties":{"path":"brands/shop/department_store","exclude":{"generic":[],"named":[]}},"items":[{"displayName":"Discovery Department","id":"discoverydepartment-03e633","locationSet":{"include":["001"]},"tags":{"brand":"Discovery Department","name":"Discovery Department","shop":"department_store"}},{"displayName":"The Italian Cut","id":"theitaliancut-03e633","locationSet":{"include":["001"]},"tags":{"air_conditioning":"yes","brand":"The Italian Cut","internet_access":"wlan","name":"The Italian Cut","opening_hours":"Mo-Sa 09:00-22:00; Su 10:00-22:00","shop":"department_store","toilets":"yes"}}],"templates":[]},"brands/shop/electronics":{"properties":{"path":"brands/shop/electronics","exclude":{"generic":[],"named":[]}},"items":[{"displayName":"Modern Tech","id":"moderntech-9377b7","locationSet":{"include":["001"]},"tags":{"brand":"Modern Tech","name":"Modern Tech","opening_hours":"10:00-22:00","shop":"electronics"}},{"displayName":"The Telescreen","id":"thetelescreen-9377b7","locationSet":{"include":["001"]},"tags":{"brand":"The Telescreen","name":"The Telescreen","shop":"electronics"}}],"templates":[]},"brands/shop/florist":{"properties":{"path":"brands/shop/florist","exclude":{"generic":[],"named":[]}},"items":[{"displayName":"Flower Power","id":"flowerpower-64f976","locationSet":{"include":["001"]},"tags":{"brand":"Flower Power","name":"Flower Power","shop":"florist"}},{"displayName":"Girasoles Land","id":"girasolesland-64f976","locationSet":{"include":["001"]},"tags":{"brand":"Girasoles Land","name":"Girasoles Land","opening_hours":"10:00-22:00","shop":"florist"}},{"displayName":"New Roses","id":"newroses-64f976","locationSet":{"include":["001"]},"tags":{"brand":"New Roses","name":"New Roses","opening_hours":"09:00-21:00","shop":"florist"}}],"templates":[]},"brands/shop/gift":{"properties":{"path":"brands/shop/gift","exclude":{"generic":[],"named":[]}},"items":[{"displayName":"Gifts Lamarc","id":"giftslamarc-9eb8a6","locationSet":{"include":["001"]},"tags":{"brand":"Gifts Lamarc","name":"Gifts Lamarc","opening_hours":"10:00-22:00","shop":"gift"}},{"displayName":"The RaBBAu Gifts","id":"therabbaugifts-9eb8a6","locationSet":{"include":["001"]},"tags":{"brand":"The RaBBAu Gifts","name":"The RaBBAu Gifts","shop":"gift"}}],"templates":[]},"brands/shop/greengrocer":{"properties":{"path":"brands/shop/greengrocer","exclude":{"generic":[],"named":[]}},"items":[{"displayName":"Comer Sano","id":"comersano-99d278","locationSet":{"include":["001"]},"tags":{"brand":"Comer Sano","name":"Comer Sano","opening_hours":"08:00-22:00","shop":"greengrocer"}},{"displayName":"Green Diet","id":"greendiet-99d278","locationSet":{"include":["001"]},"tags":{"brand":"Green Diet","name":"Green Diet","opening_hours":"06:00-15:00","shop":"greengrocer"}},{"displayName":"The Green Shopping","id":"thegreenshopping-99d278","locationSet":{"include":["001"]},"tags":{"brand":"The Green Shopping","name":"The Green Shopping","opening_hours":"08:00-22:00","shop":"greengrocer"}}],"templates":[]},"brands/shop/hairdresser":{"properties":{"path":"brands/shop/hairdresser","exclude":{"generic":[],"named":[]}},"items":[{"displayName":"Ladreda Barber","id":"ladredabarber-ece769","locationSet":{"include":["001"]},"tags":{"brand":"Ladreda Barber","name":"Ladreda Barber","opening_hours":"Mo-Su 07:00-15:00","shop":"hairdresser"}},{"displayName":"Madrazos's Cut","id":"madrazosscut-ece769","locationSet":{"include":["001"]},"tags":{"brand":"Madrazos's Cut","name":"Madrazos's Cut","opening_hours":"Mo-Sa 08:00-21:30","shop":"hairdresser"}},{"displayName":"Truly Stilish","id":"trulystilish-ece769","locationSet":{"include":["001"]},"tags":{"brand":"Truly Stilish","name":"Truly Stilish","opening_hours":"Mo-Sa 10:00-20:30","shop":"hairdresser"}}],"templates":[]},"brands/shop/interior_decoration":{"properties":{"path":"brands/shop/interior_decoration","exclude":{"generic":[],"named":[]}},"items":[{"displayName":"Busta's Decors","id":"bustasdecors-0f41f2","locationSet":{"include":["001"]},"tags":{"brand":"Busta's Decors","name":"Busta's Decors","shop":"interior_decoration"}},{"displayName":"Home Decor","id":"homedecor-0f41f2","locationSet":{"include":["001"]},"tags":{"brand":"Home Decor","name":"Home Decor","opening_hours":"Mo-Fr 10:00-21:00; Sa 11:00-15:00","shop":"interior_decoration"}},{"displayName":"Minimal Home","id":"minimalhome-0f41f2","locationSet":{"include":["001"]},"tags":{"brand":"Minimal Home","name":"Minimal Home","opening_hours":"Mo-Su 10:00-22:00","shop":"interior_decoration"}}],"templates":[]},"brands/shop/jewelry":{"properties":{"path":"brands/shop/jewelry","exclude":{"generic":[],"named":[]}},"items":[{"displayName":"Basement Jewel","id":"basementjewel-a038d2","locationSet":{"include":["001"]},"tags":{"brand":"Basement Jewel","name":"Basement Jewel","shop":"jewelry"}},{"displayName":"Mi Mitad","id":"mimitad-a038d2","locationSet":{"include":["001"]},"tags":{"brand":"Mi Mitad","name":"Mi Mitad","shop":"jewelry"}}],"templates":[]},"brands/shop/laundry":{"properties":{"path":"brands/shop/laundry","exclude":{"generic":[],"named":[]}},"items":[{"displayName":"Dry RaBBAu","id":"dryrabbau-ca17f3","locationSet":{"include":["001"]},"tags":{"brand":"Dry RaBBAu","name":"Dry RaBBAu","shop":"laundry"}},{"displayName":"Laundry Express","id":"laundryexpress-ca17f3","locationSet":{"include":["001"]},"tags":{"brand":"Laundry Express","name":"Laundry Express","shop":"laundry"}}],"templates":[]},"brands/shop/optician":{"properties":{"path":"brands/shop/optician","exclude":{"generic":[],"named":[]}},"items":[{"displayName":"Glasses FRY","id":"glassesfry-4fd8bc","locationSet":{"include":["001"]},"tags":{"brand":"Glasses FRY","name":"Glasses FRY","opening_hours":"10:00-22:00","shop":"optician"}},{"displayName":"New Eyes","id":"neweyes-4fd8bc","locationSet":{"include":["001"]},"tags":{"brand":"New Eyes","name":"New Eyes","opening_hours":"10:00-22:00","shop":"optician"}},{"displayName":"Trik Glasses","id":"trikglasses-4fd8bc","locationSet":{"include":["001"]},"tags":{"brand":"Trik Glasses","name":"Trik Glasses","opening_hours":"10:00-22:00","shop":"optician"}}],"templates":[]},"brands/shop/pastry":{"properties":{"path":"brands/shop/pastry","exclude":{"generic":[],"named":[]}},"items":[{"displayName":"Columbus Pastry","id":"columbuspastry-4f1341","locationSet":{"include":["001"]},"tags":{"brand":"Columbus Pastry","name":"Columbus Pastry","opening_hours":"06:20-14:00;17:00-20:00","shop":"pastry"}},{"displayName":"Martinho Pastry","id":"martinhopastry-4f1341","locationSet":{"include":["001"]},"tags":{"brand":"Martinho Pastry","name":"Martinho Pastry","shop":"pastry"}},{"displayName":"Masimi","id":"masimi-4f1341","locationSet":{"include":["001"]},"tags":{"brand":"Masimi","name":"Masimi","shop":"pastry"}},{"displayName":"Terminal Pastry","id":"terminalpastry-4f1341","locationSet":{"include":["001"]},"tags":{"brand":"Terminal Pastry","name":"Terminal Pastry","opening_hours":"06:20-14:00;17:00-20:00","shop":"pastry"}}],"templates":[]},"brands/shop/second_hand":{"properties":{"path":"brands/shop/second_hand","exclude":{"generic":[],"named":[]}},"items":[{"displayName":"Another Life","id":"anotherlife-c55c73","locationSet":{"include":["001"]},"tags":{"brand":"Another Life","name":"Another Life","opening_hours":"10:00-21:00","shop":"second_hand"}},{"displayName":"New Opportunities","id":"newopportunities-c55c73","locationSet":{"include":["001"]},"tags":{"brand":"New Opportunities","name":"New Opportunities","opening_hours":"09:00-21:00","shop":"second_hand"}},{"displayName":"Sallipop","id":"sallipop-c55c73","locationSet":{"include":["001"]},"tags":{"brand":"Sallipop","name":"Sallipop","opening_hours":"09:00-21:00","shop":"second_hand"}}],"templates":[]},"brands/shop/supermarket":{"properties":{"path":"brands/shop/supermarket","exclude":{"generic":[],"named":[]}},"items":[{"displayName":"Constellations Shopping","id":"constellationsshopping-986a24","locationSet":{"include":["001"]},"tags":{"brand":"Constellations Shopping","name":"Constellations Shopping","shop":"supermarket"}},{"displayName":"Coop","id":"coop-986a24","locationSet":{"include":["001"]},"tags":{"brand":"Coop","name":"Coop","shop":"supermarket"}},{"displayName":"Coregro","id":"coregro-986a24","locationSet":{"include":["001"]},"tags":{"brand":"Coregro","name":"Coregro","shop":"supermarket"}},{"displayName":"Expert Market","id":"expertmarket-986a24","locationSet":{"include":["001"]},"tags":{"brand":"Expert Market","name":"Expert Market","shop":"supermarket"}},{"displayName":"Forteno","id":"forteno-986a24","locationSet":{"include":["001"]},"tags":{"brand":"Forteno","name":"Forteno","shop":"supermarket"}},{"displayName":"Gigante","id":"gigante-986a24","locationSet":{"include":["001"]},"tags":{"brand":"Gigante","name":"Gigante","shop":"supermarket"}},{"displayName":"Hiper Madrazo","id":"hipermadrazo-986a24","locationSet":{"include":["001"]},"tags":{"brand":"Hiper Madrazo","name":"Hiper Madrazo","shop":"supermarket"}},{"displayName":"Hollow Market","id":"hollowmarket-986a24","locationSet":{"include":["001"]},"tags":{"brand":"Hollow Market","name":"Hollow Market","shop":"supermarket"}},{"displayName":"JANSA ᡶ᠋ᠠᠨᡄᠠ","id":"jansa-986a24","locationSet":{"include":["001"]},"tags":{"brand":"JANSA","name":"JANSA ᡶ᠋ᠠᠨᡄᠠ","shop":"supermarket"}},{"displayName":"Keppò Subemerkàw","id":"kepposubemerkaw-986a24","locationSet":{"include":["001"]},"tags":{"brand":"Keppò Subemerkàw","name":"Keppò Subemerkàw","shop":"supermarket"}},{"displayName":"Ordi","id":"ordi-986a24","locationSet":{"include":["001"]},"tags":{"brand":"Ordi","name":"Ordi","shop":"supermarket"}},{"displayName":"Reni","id":"reni-986a24","locationSet":{"include":["001"]},"tags":{"brand":"Reni","name":"Reni","shop":"supermarket"}},{"displayName":"Retrin","id":"retrin-986a24","locationSet":{"include":["001"]},"tags":{"brand":"Retrin","name":"Retrin","shop":"supermarket"}},{"displayName":"Superiór","id":"superior-986a24","locationSet":{"include":["001"]},"tags":{"brand":"Superiór","name":"Superiór","shop":"supermarket"}},{"displayName":"TriKL Market","id":"trikl-986a24","locationSet":{"include":["001"]},"tags":{"brand":"Triple Company","name":"TriKL","opening_hours":"10:00-21:00","shop":"supermarket"}},{"displayName":"Tutto Bene Market","id":"tuttobenemarket-986a24","locationSet":{"include":["001"]},"tags":{"brand":"Tutto Bene Market","name":"Tutto Bene Market","shop":"supermarket"}},{"displayName":"Valuigi","id":"valuigi-986a24","locationSet":{"include":["001"]},"tags":{"brand":"Valuigi","name":"Valuigi","shop":"supermarket"}},{"displayName":"Winstons","id":"winstons-986a24","locationSet":{"include":["001"]},"tags":{"brand":"Winstons","name":"Winstons","shop":"supermarket"}},{"displayName":"Yado Supermarket","id":"yadosupermarket-986a24","locationSet":{"include":["001"]},"tags":{"brand":"Yado's Supermarkets","name":"Yado Supermarket","shop":"supermarket"}}],"templates":[]},"brands/shop/tobacco":{"properties":{"path":"brands/shop/tobacco","exclude":{"generic":[],"named":[]}},"items":[{"displayName":"High Smokers","id":"highsmokers-5a36f3","locationSet":{"include":["001"]},"tags":{"brand":"High Smokers","name":"High Smokers","shop":"tobacco"}},{"displayName":"Max the Lunght","id":"maxthelunght-5a36f3","locationSet":{"include":["001"]},"tags":{"brand":"Max the Lunght","name":"Max the Lunght","shop":"tobacco"}},{"displayName":"Redwood Magic","id":"redwoodmagic-5a36f3","locationSet":{"include":["001"]},"tags":{"brand":"Redwood Magic","name":"Redwood Magic","shop":"tobacco"}}],"templates":[]},"brands/shop/toys":{"properties":{"path":"brands/shop/toys","exclude":{"generic":[],"named":[]}},"items":[{"displayName":"Happy Days!","id":"happydays-80bf0f","locationSet":{"include":["001"]},"tags":{"brand":"Happy Days!","name":"Happy Days!","opening_hours":"Mo-Sa 10:00-21:00","shop":"toys"}},{"displayName":"Toys & U","id":"toysandu-80bf0f","locationSet":{"include":["001"]},"tags":{"brand":"Toys & U","name":"Toys & U","opening_hours":"Mo-Fr 10:00-21:00; Sa 11:00-15:00","shop":"toys"}}],"templates":[]},"brands/shop/variety_store":{"properties":{"path":"brands/shop/variety_store","exclude":{"generic":[],"named":[]}},"items":[{"displayName":"800 Useless","id":"800useless-70ec82","locationSet":{"include":["001"]},"tags":{"brand":"800 Useless","name":"800 Useless","shop":"variety_store"}},{"displayName":"Bargain Catcher","id":"bargaincatcher-70ec82","locationSet":{"include":["001"]},"tags":{"brand":"Bargain Catcher","name":"Bargain Catcher","opening_hours":"09:00-21:00","shop":"variety_store"}},{"displayName":"Flying Lion","id":"flyinglion-70ec82","locationSet":{"include":["001"]},"tags":{"brand":"Flying Lion","name":"Flying Lion","shop":"variety_store"}},{"displayName":"Money Bargain","id":"moneybargain-70ec82","locationSet":{"include":["001"]},"tags":{"brand":"Money Bargain","name":"Money Bargain","shop":"variety_store"}},{"displayName":"New Cent Ideas","id":"newcentideas-70ec82","locationSet":{"include":["001"]},"tags":{"brand":"New Cent Ideas","name":"New Cent Ideas","shop":"variety_store"}}],"templates":[]},"brands/tourism/guest_house":{"properties":{"path":"brands/tourism/guest_house","exclude":{"generic":[],"named":[]}},"items":[{"displayName":"Degrowth Student Accomodation","id":"degrowthstudentaccomodation-1dc259","locationSet":{"include":["001"]},"tags":{"brand":"Degrowth Student Accomodation","guest_house":"student_accomodation","name":"Degrowth Student Accomodation","tourism":"guest_house"}}],"templates":[]},"brands/tourism/hostel":{"properties":{"path":"brands/tourism/hostel","exclude":{"generic":[],"named":[]}},"items":[{"displayName":"Sleep-in-Ø","id":"sleepino-840e3b","locationSet":{"include":["001"]},"tags":{"brand":"Sleep-in-Ø","name":"Sleep-in-Ø","tourism":"hostel"}}],"templates":[]},"brands/tourism/hotel":{"properties":{"path":"brands/tourism/hotel","exclude":{"generic":[],"named":[]}},"items":[{"countryRestrictions":{"allowed":["FSA"],"ask":[],"no":["*"]},"displayName":"Consulate Suites","id":"consulatesuites-779ccb","locationSet":{"include":["001"]},"tags":{"brand":"Consulate Suites","name":"Consulate Suites","tourism":"hotel"}},{"displayName":"Embaixador","id":"embaixador-779ccb","locationSet":{"include":["001"]},"tags":{"brand":"Embaixador","name":"Embaixador","tourism":"hotel"}},{"countryRestrictions":{"allowed":["FSA"],"ask":[],"no":["*"]},"displayName":"Hancher Elite","id":"hancherelite-779ccb","locationSet":{"include":["001"]},"tags":{"brand":"Hancher Elite","name":"Hancher Elite","tourism":"hotel"}},{"displayName":"Holidaysmart","id":"holidaysmart-779ccb","locationSet":{"include":["001"]},"tags":{"brand":"Holidaysmart","name":"Holidaysmart","tourism":"hotel"}},{"countryRestrictions":{"allowed":["FSA"],"ask":[],"no":["*"]},"displayName":"Holliston Inn","id":"hollistoninn-779ccb","locationSet":{"include":["001"]},"tags":{"brand":"Holliston Inn","name":"Holliston Inn","tourism":"hotel"}},{"countryRestrictions":{"allowed":["Lutang"],"ask":[],"no":["*"]},"creator":"Lemuria","displayName":"Hotel Berde","id":"hotelberde-779ccb","locationSet":{"include":["001"]},"originCountry":"Lutang","tags":{"brand":"Hotel Berde","name":"Hotel Berde","tourism":"hotel"}},{"countryRestrictions":{"allowed":["Lutang"],"ask":[],"no":["*"]},"creator":"Lemuria","displayName":"Hotel Kamusta","id":"hotelkamusta-779ccb","locationSet":{"include":["001"]},"originCountry":"Lutang","tags":{"brand":"Hotel Kamusta","name":"Hotel Kamusta","tourism":"hotel"}},{"displayName":"imanti","id":"imanti-779ccb","locationSet":{"include":["001"]},"tags":{"brand":"imanti","name":"imanti","tourism":"hotel"}},{"countryRestrictions":{"allowed":["FSA"],"ask":[],"no":["*"]},"displayName":"Leyton Hotel","id":"leytonhotel-779ccb","locationSet":{"include":["001"]},"tags":{"brand":"Leyton Hotel","name":"Leyton Hotel","tourism":"hotel"}},{"countryRestrictions":{"allowed":["Lutang"],"ask":[],"no":["*"]},"creator":"Lemuria","displayName":"Madaling Araw Hotel","id":"madalingarawhotel-779ccb","locationSet":{"include":["001"]},"originCountry":"Lutang","tags":{"brand":"Madaling Araw Hotel","name":"Madaling Araw Hotel","tourism":"hotel"}},{"countryRestrictions":{"allowed":["FSA"],"ask":[],"no":["*"]},"displayName":"Meridian Suites","id":"meridiansuites-779ccb","locationSet":{"include":["001"]},"tags":{"brand":"Meridian Suites","name":"Meridian Suites","tourism":"hotel"}},{"countryRestrictions":{"allowed":["Lutang"],"ask":[],"no":["*"]},"creator":"Lemuria","displayName":"Pangtulog","id":"pangtulog-779ccb","locationSet":{"include":["001"]},"originCountry":"Lutang","tags":{"brand":"Pangtulog","name":"Pangtulog","tourism":"hotel"}},{"displayName":"Seleste Hotels","id":"selestehotels-779ccb","locationSet":{"include":["001"]},"tags":{"brand":"Seleste Hotels and Resorts","name":"Seleste Hotels","tourism":"hotel"}},{"displayName":"Sleep'Inn","id":"sleepinn-779ccb","locationSet":{"include":["001"]},"tags":{"brand":"Sleep'Inn","name":"Sleep'Inn","tourism":"hotel"}},{"countryRestrictions":{"allowed":["FSA"],"ask":[],"no":["*"]},"displayName":"The Atrium","id":"theatrium-779ccb","locationSet":{"include":["001"]},"tags":{"brand":"The Atrium","name":"The Atrium","tourism":"hotel"}},{"countryRestrictions":{"allowed":["FSA"],"ask":[],"no":["*"]},"displayName":"The Bassett","id":"thebassett-779ccb","locationSet":{"include":["001"]},"tags":{"brand":"The Bassett","name":"The Bassett","tourism":"hotel"}},{"countryRestrictions":{"allowed":["FSA"],"ask":[],"no":["*"]},"displayName":"The Wilberding","id":"thewilberding-779ccb","locationSet":{"include":["001"]},"tags":{"brand":"The Wilberding","name":"The Wilberding","tourism":"hotel"}},{"countryRestrictions":{"allowed":["FSA"],"ask":[],"no":["*"]},"displayName":"UltraLiving","id":"ultraliving-779ccb","locationSet":{"include":["001"]},"tags":{"brand":"UltraLiving","name":"UltraLiving","tourism":"hotel"}},{"countryRestrictions":{"allowed":["FSA"],"ask":[],"no":["*"]},"displayName":"Waltherams Suites","id":"waltheramssuites-779ccb","locationSet":{"include":["001"]},"tags":{"brand":"Waltherams Suites","name":"Waltherams Suites","tourism":"hotel"}}],"templates":[]},"brands/tourism/love_hotel":{"properties":{"path":"brands/tourism/love_hotel","exclude":{"generic":[],"named":[]}},"items":[{"countryRestrictions":{"allowed":["Lutang"],"ask":[],"no":["*"]},"displayName":"Do It","id":"doit-c5c09d","locationSet":{"include":["001"]},"tags":{"amenity":"love_hotel","brand":"Do It","name":"Do It","tourism":"love_hotel"}},{"countryRestrictions":{"allowed":["Lutang"],"ask":[],"no":["*"]},"displayName":"HotelHour","id":"hotelhour-c5c09d","locationSet":{"include":["001"]},"tags":{"amenity":"love_hotel","brand":"HotelHour","name":"HotelHour","tourism":"love_hotel"}},{"countryRestrictions":{"allowed":["Lutang"],"ask":[],"no":["*"]},"displayName":"Isang Oras Lang","id":"isangoraslang-c5c09d","locationSet":{"include":["001"]},"tags":{"amenity":"love_hotel","brand":"Isang Oras Lang","name":"Isang Oras Lang","tourism":"love_hotel"}}],"templates":[]},"brands/tourism/motel":{"properties":{"path":"brands/tourism/motel","exclude":{"generic":[],"named":[]}},"items":[{"countryRestrictions":{"allowed":["FSA"],"ask":[],"no":["*"]},"displayName":"Econobudget Inn","id":"econobudgetinn-a19b96","locationSet":{"include":["001"]},"tags":{"brand":"Econobudget Inn","name":"Econobudget Inn","tourism":"motel"}},{"countryRestrictions":{"allowed":["FSA"],"ask":[],"no":["*"]},"displayName":"Hartt Motel","id":"harttmotel-a19b96","locationSet":{"include":["001"]},"tags":{"brand":"Hartt Motel","name":"Hartt Motel","tourism":"motel"}},{"countryRestrictions":{"allowed":["FSA"],"ask":[],"no":["*"]},"displayName":"Mega 9 Motel","id":"mega9motel-a19b96","locationSet":{"include":["001"]},"tags":{"brand":"Mega 9 Motel","name":"Mega 9 Motel","tourism":"motel"}},{"countryRestrictions":{"allowed":["FSA"],"ask":[],"no":["*"]},"displayName":"Towne Inn","id":"towneinn-a19b96","locationSet":{"include":["001"]},"tags":{"brand":"Towne Inn","name":"Towne Inn","tourism":"motel"}}],"templates":[]},"flags/man_made/flagpole":{"properties":{"path":"flags/man_made/flagpole","preserveTags":["^flag:name"],"exclude":{"generic":["^flagpole$"]}},"items":[{"displayName":"LGBT Pride","id":"lgbtpride-e5dc93","locationSet":{"include":["001"]},"matchNames":["gay","gay pride","lgbt","lgbtq","pride","rainbow"],"tags":{"flag:name":"LGBT Pride","flag:type":"cultural","flag:wikidata":"Q51401","man_made":"flagpole","subject":"LGBT Pride","subject:wikidata":"Q51406"}}],"templates":[]}}}